SENTINEL-6              
1 46984U 20086A   23223.72364062 -.00000071  00000+0 -43689-4 0  9992
2 46984  66.0413 136.1077 0007943 268.8898  91.1207 12.80928875127190
